GOMX-1                  
1 39430U 13066Q   24158.18353357  .00002836  00000+0  47742-3 0  9995
2 39430  97.7339  33.2328 0138652 288.1056  70.5088 14.64145643561430
CUBEBUG-2 (LO-74)       
1 39440U 13066AA  24158.11418084  .00006499  00000+0  76825-3 0  9991
2 39440  97.8130 102.0231 0068520 311.4953  48.0392 14.83295055567899
NEE-02 KRYSAOR          
1 39441U 13066AB  24157.81250454  .00004387  00000+0  55955-3 0  9998
2 39441  97.8223  97.6453 0073634 334.2884  25.4674 14.80087241566250
FUNCUBE-1 (AO-73)       
1 39444U 13066AE  24158.14755910  .00007212  00000+0  70154-3 0  9993
2 39444  97.7184 117.4621 0048357 175.5368 184.6293 14.91963927569055
UWE-3                   
1 39446U 13066AG  24157.80452668  .00005701  00000+0  63823-3 0  9997
2 39446  97.7806 107.7889 0058682 256.5968 102.8702 14.86018744567017
BRITE-CA1 (TORONTO)     
1 40020U 14033L   24158.12577679  .00002465  00000+0  40263-3 0  9995
2 40020  97.8761 295.6391 0084346 127.0202 233.8759 14.69407180533356
DUCHIFAT-1              
1 40021U 14033M   24158.20586341  .00015375  00000+0  10284-2 0  9994
2 40021  98.0897 141.4780 0014943 131.5325 228.7186 15.06959652542470
NANOSATC-BR1            
1 40024U 14033Q   24157.49275024  .00011071  00000+0  82433-3 0  9995
2 40024  98.0609 129.1138 0005765 191.0192 169.0906 15.03103631541492
QB50P1                  
1 40025U 14033R   24157.47386194  .00008409  00000+0  68759-3 0  9991
2 40025  98.0384 117.8540 0010416 195.8469 164.2428 14.99579424541129
QB50P2                  
1 40032U 14033Y   24157.69976637  .00008027  00000+0  67861-3 0  9999
2 40032  98.0082 109.8497 0009112 179.3392 180.7843 14.98313395540953
PERSEUS-M2              
1 40037U 14033AD  24157.54616177  .00003122  00000+0  32590-3 0  9990
2 40037  97.9274  88.2959 0011892 229.1301 130.8887 14.90423763540096
PERSEUS-M1              
1 40039U 14033AF  24157.77108044  .00002744  00000+0  28876-3 0  9997
2 40039  97.9078  84.6100 0011679 227.7091 132.3137 14.90198987539989
POLYITAN-1              
1 40042U 14033AJ  24157.63129561  .00012249  00000+0  92968-3 0  9997
2 40042  98.0711 121.4425 0014301 161.5769 198.5976 15.02282214541104
TIGRISAT                
1 40043U 14033AK  24157.90769370  .00002980  00000+0  40141-3 0  9993
2 40043  97.6939 321.1263 0054780 341.6915  18.2324 14.78879263535791
AEROCUBE 6A             
1 40045U 14033AM  24157.45721200  .00005784  00000+0  69678-3 0  9996
2 40045  97.6687 331.4027 0049494 321.2055  38.5609 14.83358220536052
AEROCUBE 6B             
1 40046U 14033AN  24158.17399986  .00006877  00000+0  81062-3 0  9994
2 40046  97.6652 330.7858 0047986 314.1837  45.5439 14.84237384536598
UKUBE-1                 
1 40074U 14037F   24158.08287060  .00009914  00000+0  94235-3 0  9999
2 40074  98.3436  87.3249 0006092 103.2572 256.9326 14.93678295537125
BRITE-PL2 (HEWELIUSZ)   
1 40119U 14049B   24157.72513285  .00003022  00000+0  32778-3 0  9991
2 40119  97.8829 257.4435 0016669  46.3259 313.9336 14.88826199530874
CP10 (EXOCUBE)          
1 40380U 15003E   24157.80886938  .00372580  53119-4  13467-2 0  9994
2 40380  99.0882 181.2516 0032989 151.3947 208.9138 15.87659333517631
AEROCUBE 5C             
1 40965U 15058B   24157.93507080  .00004379  00000+0  40954-3 0  9991
2 40965  64.7717  36.1985 0189609 311.5759  46.9225 14.82774644255371
AEROCUBE 7              
1 40966U 15058C   24157.82927945  .00005450  00000+0  48856-3 0  9996
2 40966  64.7695  30.3967 0184570 311.2333  47.2993 14.84643547255421
FOX-1A (AO-85)          
1 40967U 15058D   24158.05850958  .00004644  00000+0  44087-3 0  9998
2 40967  64.7797  49.6374 0189231 307.3486  51.0511 14.82168740  3340
BISONSAT                
1 40968U 15058E   24157.84314118  .00005775  00000+0  52459-3 0  9996
2 40968  64.7797  43.1740 0184051 306.3950  52.0301 14.84145145  6131
SNAP-3 ALICE            
1 40970U 15058G   24157.26960286  .00010152  00000+0  71706-3 0  9999
2 40970  64.7721   2.9214 0155040 304.4161  54.2378 14.96097250  4007
LMRST-SAT               
1 40971U 15058H   24157.08824938  .00004722  00000+0  44726-3 0  9991
2 40971  64.7785  48.1400 0190218 309.0429  49.3879 14.82107606  3205
SNAP-3 EDDIE            
1 40972U 15058J   24157.81720887  .00012515  00000+0  87003-3 0  9995
2 40972  64.7702 354.6391 0155599 305.1833  53.4790 14.96454816  6189
PROPCUBE 3              
1 40973U 15058K   24157.66760400  .00004925  00000+0  44896-3 0  9993
2 40973  64.7729  34.2919 0186625 310.1922  48.2976 14.83908308  4323
SINOD-D 1               
1 40974U 15058L   24157.57220167  .00008394  00000+0  65515-3 0  9990
2 40974  64.7694   9.3582 0168402 307.8234  50.7733 14.91152021  4035
SNAP-3 JIMI             
1 40975U 15058M   24157.03963833  .00006780  00000+0  57649-3 0  9992
2 40975  64.7713  24.4761 0178846 309.3389  49.1985 14.87017547  3225
PROPCUBE 1 (FLORA)      
1 40976U 15058N   24157.47860815  .00005171  00000+0  50657-3 0  9992
2 40976  64.7778  62.3039 0188168 310.1598  48.3158 14.80973504  6061
SINOD-D 3               
1 40977U 15058P   24158.09066574  .00006012  00000+0  56535-3 0  9998
2 40977  64.7773  53.8475 0182961 309.1359  49.3607 14.82943405  4386
VELOX-II                
1 41171U 15077F   24157.31016264  .00193503  00000+0  14908-2 0  9990
2 41171  14.9856 148.0259 0004112 239.7665 120.2256 15.69956160469919
HORYU-4                 
1 41340U 16012D   24157.81647589  .00014934  00000+0  74751-3 0  9996
2 41340  31.0037  49.7005 0009737 222.1179 137.8713 15.16161504456424
RAVAN                   
1 41849U 16067B   24157.74366341  .00011888  00000+0  65854-3 0  9995
2 41849  98.0632 334.7635 0014124  71.4711 288.8052 15.13901782414256
CELTEE 1                
1 41850U 16067C   24157.94153020  .00007661  00000+0  52368-3 0  9997
2 41850  98.1017 326.8619 0000890 152.7205 207.4068 15.06450529413732
OPTICUBE 04             
1 41851U 16067D   24157.89991417  .00003600  00000+0  27375-3 0  9991
2 41851  98.0741 322.3704 0019828  93.5786 266.7706 15.02674843413548
AEROCUBE 8D             
1 41852U 16067E   24157.74092263  .00009371  00000+0  61905-3 0  9995
2 41852  98.1061 326.3729 0005933 139.4842 220.6827 15.07639071413677
AEROCUBE 8C             
1 41853U 16067F   24157.68777281  .00009765  00000+0  64534-3 0  9997
2 41853  98.0866 324.9246 0008737  81.5296 278.6921 15.07590324413656
PROMETHEUS 2-1          
1 41854U 16067G   24157.74895799  .00020505  00000+0  10484-2 0  9999
2 41854  98.0988 332.1526 0013624  98.5119 261.7656 15.16615149414008
PROMETHEUS 2-3          
1 41855U 16067H   24158.20684833  .00020155  00000+0  10315-2 0  9991
2 41855  98.0917 332.1404 0011750 106.4598 253.7925 15.16606324414076
DIDO-2                  
1 42000U 17008BE  24158.15996616  .00244490  00000+0  98933-3 0  9992
2 42000  97.1311 219.5542 0006383 185.7169 174.4031 15.85659382407053
AALTO-1                 
1 42775U 17036L   24157.53322544  .00102006  00000+0  99223-3 0  9995
2 42775  97.1030 187.0326 0005274 202.6713 157.4316 15.65943847387280
URSA MAIOR              
1 42776U 17036M   24157.83922392  .00352242  46594-4  13149-2 0  9990
2 42776  97.0962 191.6436 0007765 197.7512 162.3490 15.87897349387608
CICERO 6                
1 42793U 17036AE  24158.04519383  .01093782  74616-3  11217-2 0  9996
2 42793  97.0372 196.6150 0008293 206.1984 153.8883 16.10879899388064
CORVUS BC2              
1 42846U 17042X   24157.49723815  .00004377  00000+0  37855-3 0  9997
2 42846  97.3731 343.2538 0009387  97.1098 263.1193 14.97629953375695
CORVUS BC1              
1 42847U 17042Y   24158.06080489  .00005471  00000+0  47001-3 0  9995
2 42847  97.3722 344.1853 0009830  96.8051 263.4291 14.97783963375799
MIRATA                  
1 43015U 17073C   24157.92302965  .00021136  00000+0  10067-2 0  9994
2 43015  97.5973  42.7982 0168817 299.7205  58.7314 15.07367618354635
MAKERSAT 0              
1 43016U 17073D   24158.20450913  .00016229  00000+0  92750-3 0  9991
2 43016  97.5825  37.4904 0194656 319.7912  38.9044 14.98074344354264
CORVUS BC3              
1 43118U 18004H   24158.23189382  .00858197  37462-3  13496-2 0  9994
2 43118  97.2780 245.0267 0011293 261.4888  98.5113 16.03881824357206
GOMX-4B                 
1 43196U 18015E   24157.77156729  .00070502  00000+0  79234-3 0  9992
2 43196  97.6054 330.5207 0006195 352.7828   7.3339 15.62365054353746
GOMX-4A                 
1 43197U 18015F   24158.22962692  .00126298  00000+0  88731-3 0  9994
2 43197  97.5954 335.9418 0004533 321.9831  38.1112 15.73767353354151
CICERO 10               
1 43690U 18088A   24158.11835047  .00225714  00000+0  12581-2 0  9995
2 43690  85.0074 187.3126 0001797 197.9327 162.1882 15.78816300310447
SIRION PATHFINDER-2     
1 43759U 18099B   24158.10673457  .00007356  00000+0  55526-3 0  9994
2 43759  97.5288 214.5588 0010645 326.7269  33.3286 15.02653529300841
CORVUS BC4              
1 43767U 18099K   24157.86842581  .00006166  00000+0  47442-3 0  9997
2 43767  97.5156 211.5861 0011297  43.1629 317.0479 15.01984509300692
MOVE-II                 
1 43780U 18099Y   24157.93382411  .00022869  00000+0  12127-2 0  9990
2 43780  97.5221 221.0281 0006169  30.5773 329.5818 15.15356962301220
SPACEBEE-7              
1 43816U 18099BL  24157.42022978  .00014026  00000+0  83489-3 0  9999
2 43816  97.5492 221.2638 0008610 334.1837  25.8963 15.11306831300632
SPACEBEE-6              
1 43818U 18099BN  24157.91605736  .00037711  00000+0  16140-2 0  9999
2 43818  97.5421 226.9112 0006737 327.9464  32.1362 15.22684968301197
SHIELDS 1               
1 43850U 18104B   24157.40924553  .00016168  00000+0  43796-3 0  9998
2 43850  85.0221 291.1016 0012635 114.3898 245.8672 15.37448740304353
